{
    "links": {
        "self": "http://www.neowsapp.com/rest/v1/neo/3839565?api_key=iIulBulltgU6a56xZRHN4H3l9WmuAYTsLGpBGhQ2"
    },
    "id": "3839565",
    "neo_reference_id": "3839565",
    "name": "(2019 EL2)",
    "designation": "2019 EL2",
    "nasa_jpl_url": "http://ssd.jpl.nasa.gov/sbdb.cgi?sstr=3839565",
    "absolute_magnitude_h": 26.4,
    "estimated_diameter": {
        "kilometers": {
            "estimated_diameter_min": 0.0139493823,
            "estimated_diameter_max": 0.0311917671
        },
        "meters": {
            "estimated_diameter_min": 13.9493822934,
            "estimated_diameter_max": 31.1917670523
        },
        "miles": {
            "estimated_diameter_min": 0.0086677416,
            "estimated_diameter_max": 0.0193816595
        },
        "feet": {
            "estimated_diameter_min": 45.7656914036,
            "estimated_diameter_max": 102.3351970157
        }
    },
    "is_potentially_hazardous_asteroid": false,
    "close_approach_data": [
        {
            "close_approach_date": "1953-04-18",
            "close_approach_date_full": "1953-Apr-18 03:28",
            "epoch_date_close_approach": -527200320000,
            "relative_velocity": {
                "kilometers_per_second": "17.1601889679",
                "kilometers_per_hour": "61776.6802845426",
                "miles_per_hour": "38385.6267023593"
            },
            "miss_distance": {
                "astronomical": "0.37529345",
                "lunar": "145.98915205",
                "kilometers": "56143100.7449515",
                "miles": "34885705.1312707"
            },
            "orbiting_body": "Earth"
        },
        {
            "close_approach_date": "1955-01-03",
            "close_approach_date_full": "1955-Jan-03 17:02",
            "epoch_date_close_approach": -473151480000,
            "relative_velocity": {
                "kilometers_per_second": "12.4705736038",
                "kilometers_per_hour": "44894.0649738578",
                "miles_per_hour": "27895.4260944507"
            },
            "miss_distance": {
                "astronomical": "0.2489699595",
                "lunar": "96.8493142455",
                "kilometers": "37245375.635186265",
                "miles": "23143203.255109857"
            },
            "orbiting_body": "Earth"
        },
        {
            "close_approach_date": "2019-03-11",
            "close_approach_date_full": "2019-Mar-11 11:47",
            "epoch_date_close_approach": 1552304820000,
            "relative_velocity": {
                "kilometers_per_second": "6.6659299335",
                "kilometers_per_hour": "23997.3477606321",
                "miles_per_hour": "14911.0186682661"
            },
            "miss_distance": {
                "astronomical": "0.0075520081",
                "lunar": "2.9377311509",
                "kilometers": "1129764.325982747",
                "miles": "702002.9998540286"
            },
            "orbiting_body": "Moon"
        },
        {
            "close_approach_date": "2019-03-11",
            "close_approach_date_full": "2019-Mar-11 21:34",
            "epoch_date_close_approach": 1552340040000,
            "relative_velocity": {
                "kilometers_per_second": "6.6545900322",
                "kilometers_per_hour": "23956.5241160336",
                "miles_per_hour": "14885.6524430988"
            },
            "miss_distance": {
                "astronomical": "0.006370417",
                "lunar": "2.478092213",
                "kilometers": "953000.81421179",
                "miles": "592167.246791102"
            },
            "orbiting_body": "Earth"
        }
    ],
    "orbital_data": {
        "orbit_id": "5",
        "orbit_determination_date": "2019-03-31 07:52:00",
        "first_observation_date": "2019-03-14",
        "last_observation_date": "2019-03-29",
        "data_arc_in_days": 15,
        "observations_used": 44,
        "orbit_uncertainty": "7",
        "minimum_orbit_intersection": ".00576933",
        "jupiter_tisserand_invariant": "4.415",
        "epoch_osculation": "2459000.5",
        "eccentricity": ".3581131455524055",
        "semi_major_axis": "1.525499969051539",
        "inclination": "6.935839289106835",
        "ascending_node_longitude": "172.5025012506697",
        "orbital_period": "688.2032696514696",
        "perihelion_distance": ".9791983765943951",
        "perihelion_argument": "336.3855089874456",
        "aphelion_distance": "2.071801561508683",
        "perihelion_time": "2459223.981918976419",
        "mean_anomaly": "243.0963257813998",
        "mean_motion": ".5231012636460107",
        "equinox": "J2000",
        "orbit_class": {
            "orbit_class_type": "APO",
            "orbit_class_description": "Near-Earth asteroid orbits which cross the Earth’s orbit similar to that of 1862 Apollo",
            "orbit_class_range": "a (semi-major axis) > 1.0 AU; q (perihelion) < 1.017 AU"
        }
    },
    "is_sentry_object": false
}